0 FENGYUN 1C DEB
1 30540U 99025AKE 13283.04670956  .00001918  00000-0  11287-2 0   419
2 30540 099.0686 313.2335 0073590 085.9709 329.1187 14.07875085344146
0 FENGYUN 1C DEB
1 30540U 99025AKE 13285.33622044  .00001642  00000-0  96956-3 0   420
2 30540 099.0683 315.5330 0073384 079.6075 053.1465 14.07884365344469
0 FENGYUN 1C DEB
1 30540U 99025AKE 13287.80891361  .00001815  00000-0  10692-2 0   439
2 30540 099.0676 318.0166 0073206 072.7060 345.7213 14.07895674344812
0 FENGYUN 1C DEB
1 30540U 99025AKE 13290.59902784  .00001790  00000-0  10548-2 0   444
2 30540 099.0671 320.8185 0072993 064.9098 087.2492 14.07907336345205
0 FENGYUN 1C DEB
1 30540U 99025AKE 13293.06189951  .00002070  00000-0  12158-2 0   454
2 30540 099.0670 323.2916 0072732 058.0001 330.2918 14.07913393345554
0 FENGYUN 1C DEB
1 30540U 99025AKE 13295.76785584  .00002393  00000-0  14011-2 0   466
2 30540 099.0675 326.0087 0072470 050.3375 005.5549 14.07923370345937
